IXPE                    
1 49954U 21121A   24063.58335648  .00005227  00000+0  37627-3 0  9998
2 49954   0.2304  95.7790 0010101 155.5057 341.5134 14.96709412  5896
